{"type": "FeatureCollection", "features": [ {"type": "Feature", "properties": {"norad_id": 30208, "name": "FENGYUN 1C DEB", "group": "fengyun-1c-debris", "lat": 11.727021250812303, "lon": -16.842456316878582, "alt_km": 815.9903294994992, "timestamp": "2025-12-09T21:34:11.682593+00:00", "meta": {"OBJECT_NAME": "FENGYUN 1C DEB", "OBJECT_ID": "1999-025VR", "EPOCH": "2025-12-09T12:06:48.593376", "MEAN_MOTION": 14.23516075, "ECCENTRICITY": 0.00329949, "INCLINATION": 98.5618, "RA_OF_ASC_NODE": 344.5662, "ARG_OF_PERICENTER": 279.955, "MEAN_ANOMALY": 233.5835, "EPHEMERIS_TYPE": 0, "CLASSIFICATION_TYPE": "U", "NORAD_CAT_ID": 30208, "ELEMENT_SET_NO": 999, "REV_AT_EPOCH": 97791, "BSTAR": 0.00085202837, "MEAN_MOTION_DOT": 1.906e-05, "MEAN_MOTION_DDOT": 0}, "tle": {"line1": "1 30208U 99025VR  25343.50472909  .00001906  00000+0  85203-3 0  9997", "line2": "2 30208  98.5618 344.5662 0032994 279.9550 233.5835 14.23516075977912"}}, "geometry": {"type": "Point", "coordinates": [-16.842456316878582, 11.727021250812303]}}, {"type": "Feature", "properties": {"norad_id": 30209, "name": "FENGYUN 1C DEB", "group": "fengyun-1c-debris", "lat": 74.87164098874447, "lon": -164.636693394503, "alt_km": 865.0825445823539, "timestamp": "2025-12-09T21:34:11.682604+00:00", "meta": {"OBJECT_NAME": "FENGYUN 1C DEB", "OBJECT_ID": "1999-025VS", "EPOCH": "2025-12-09T11:36:22.919904", "MEAN_MOTION": 14.12896065, "ECCENTRICITY": 0.00386285, "INCLINATION": 98.7135, "RA_OF_ASC_NODE": 340.4, "ARG_OF_PERICENTER": 248.2937, "MEAN_ANOMALY": 263.9141, "EPHEMERIS_TYPE": 0, "CLASSIFICATION_TYPE": "U", "NORAD_CAT_ID": 30209, "ELEMENT_SET_NO": 999, "REV_AT_EPOCH": 97160, "BSTAR": 0.00073825858, "MEAN_MOTION_DOT": 1.341e-05, "MEAN_MOTION_DDOT": 0}, "tle": {"line1": "1 30209U 99025VS  25343.48359861  .00001341  00000+0  73826-3 0  9997", "line2": "2 30209  98.7135 340.4000 0038628 248.2937 263.9141 14.12896065971603"}}, "geometry": {"type": "Point", "coordinates": [-164.636693394503, 74.87164098874447]}}, {"type": "Feature", "properties": {"norad_id": 30210, "name": "FENGYUN 1C DEB", "group": "fengyun-1c-debris", "lat": 22.674816943516845, "lon": -142.52779353156296, "alt_km": 824.6628524540083, "timestamp": "2025-12-09T21:34:11.682614+00:00", "meta": {"OBJECT_NAME": "FENGYUN 1C DEB", "OBJECT_ID": "1999-025VT", "EPOCH": "2025-12-09T02:21:55.190880", "MEAN_MOTION": 14.0825499, "ECCENTRICITY": 0.00569183, "INCLINATION": 99.1906, "RA_OF_ASC_NODE": 32.7791, "ARG_OF_PERICENTER": 146.358, "MEAN_ANOMALY": 275.8902, "EPHEMERIS_TYPE": 0, "CLASSIFICATION_TYPE": "U", "NORAD_CAT_ID": 30210, "ELEMENT_SET_NO": 999, "REV_AT_EPOCH": 96706, "BSTAR": 0.00088451781, "MEAN_MOTION_DOT": 1.488e-05, "MEAN_MOTION_DDOT": 0}, "tle": {"line1": "1 30210U 99025VT  25343.09855545  .00001488  00000+0  88452-3 0  9999", "line2": "2 30210  99.1906  32.7791 0056918 146.3580 275.8902 14.08254990967060"}}, "geometry": {"type": "Point", "coordinates": [-142.52779353156296, 22.674816943516845]}}, {"type": "Feature", "properties": {"norad_id": 30212, "name": "FENGYUN 1C DEB", "group": "fengyun-1c-debris", "lat": 20.050578715475382, "lon": 32.686203650965986, "alt_km": 897.8033213092767, "timestamp": "2025-12-09T21:34:11.682625+00:00", "meta": {"OBJECT_NAME": "FENGYUN 1C DEB", "OBJECT_ID": "1999-025VV", "EPOCH": "2025-12-09T13:55:23.604384", "MEAN_MOTION": 13.97052738, "ECCENTRICITY": 0.00968437, "INCLINATION": 99.4577, "RA_OF_ASC_NODE": 208.8708, "ARG_OF_PERICENTER": 245.9672, "MEAN_ANOMALY": 113.1331, "EPHEMERIS_TYPE": 0, "CLASSIFICATION_TYPE": "U", "NORAD_CAT_ID": 30212, "ELEMENT_SET_NO": 999, "REV_AT_EPOCH": 96181, "BSTAR": 0.00052226819, "MEAN_MOTION_DOT": 7.11e-06, "MEAN_MOTION_DDOT": 0}, "tle": {"line1": "1 30212U 99025VV  25343.58013431  .00000711  00000+0  52227-3 0  9994", "line2": "2 30212  99.4577 208.8708 0096843 245.9672 113.1331 13.97052738961812"}}, "geometry": {"type": "Point", "coordinates": [32.686203650965986, 20.050578715475382]}}, {"type": "Feature", "properties": {"norad_id": 30213, "name": "FENGYUN 1C DEB", "group": "fengyun-1c-debris", "lat": 78.48151039143129, "lon": 8.255456855401164, "alt_km": 897.3182423543803, "timestamp": "2025-12-09T21:34:11.682635+00:00", "meta": {"OBJECT_NAME": "FENGYUN 1C DEB", "OBJECT_ID": "1999-025VW", "EPOCH": "2025-12-09T04:25:29.090208", "MEAN_MOTION": 14.11543193, "ECCENTRICITY": 0.00713658, "INCLINATION": 99.1219, "RA_OF_ASC_NODE": 59.5662, "ARG_OF_PERICENTER": 253.6288, "MEAN_ANOMALY": 161.3164, "EPHEMERIS_TYPE": 0, "CLASSIFICATION_TYPE": "U", "NORAD_CAT_ID": 30213, "ELEMENT_SET_NO": 999, "REV_AT_EPOCH": 96465, "BSTAR": 0.001917633, "MEAN_MOTION_DOT": 3.519e-05, "MEAN_MOTION_DDOT": 0}, "tle": {"line1": "1 30213U 99025VW  25343.18436447  .00003519  00000+0  19176-2 0  9991", "line2": "2 30213  99.1219  59.5662 0071365 253.6288 161.3164 14.11543193964655"}}, "geometry": {"type": "Point", "coordinates": [8.255456855401164, 78.48151039143129]}}, {"type": "Feature", "properties": {"norad_id": 30214, "name": "FENGYUN 1C DEB", "group": "fengyun-1c-debris", "lat": 59.87943198645054, "lon": 41.69068473419722, "alt_km": 767.8260782467069, "timestamp": "2025-12-09T21:34:11.682646+00:00", "meta": {"OBJECT_NAME": "FENGYUN 1C DEB", "OBJECT_ID": "1999-025VX", "EPOCH": "2025-12-07T16:17:42.065376", "MEAN_MOTION": 14.30859446, "ECCENTRICITY": 0.00212176, "INCLINATION": 98.7246, "RA_OF_ASC_NODE": 54.8116, "ARG_OF_PERICENTER": 60.3593, "MEAN_ANOMALY": 92.7615, "EPHEMERIS_TYPE": 0, "CLASSIFICATION_TYPE": "U", "NORAD_CAT_ID": 30214, "ELEMENT_SET_NO": 999, "REV_AT_EPOCH": 97494, "BSTAR": 0.0028272448, "MEAN_MOTION_DOT": 7.398e-05, "MEAN_MOTION_DDOT": 0}, "tle": {"line1": "1 30214U 99025VX  25341.67895909  .00007398  00000+0  28272-2 0  9992", "line2": "2 30214  98.7246  54.8116 0021217  60.3593  92.7615 14.30859446974949"}}, "geometry": {"type": "Point", "coordinates": [41.69068473419722, 59.87943198645054]}}, {"type": "Feature", "properties": {"norad_id": 30217, "name": "FENGYUN 1C DEB", "group": "fengyun-1c-debris", "lat": -80.38279257747762, "lon": 28.861707365287565, "alt_km": 914.6651786993343, "timestamp": "2025-12-09T21:34:11.682656+00:00", "meta": {"OBJECT_NAME": "FENGYUN 1C DEB", "OBJECT_ID": "1999-025WA", "EPOCH": "2025-12-09T11:52:00.253632", "MEAN_MOTION": 14.24828344, "ECCENTRICITY": 0.01406426, "INCLINATION": 98.4311, "RA_OF_ASC_NODE": 327.3925, "ARG_OF_PERICENTER": 109.2541, "MEAN_ANOMALY": 252.3915, "EPHEMERIS_TYPE": 0, "CLASSIFICATION_TYPE": "U", "NORAD_CAT_ID": 30217, "ELEMENT_SET_NO": 999, "REV_AT_EPOCH": 98027, "BSTAR": 0.00038941026, "MEAN_MOTION_DOT": 9.66e-06, "MEAN_MOTION_DDOT": 0}, "tle": {"line1": "1 30217U 99025WA  25343.49444738  .00000966  00000+0  38941-3 0  9996", "line2": "2 30217  98.4311 327.3925 0140642 109.2541 252.3915 14.24828344980274"}}, "geometry": {"type": "Point", "coordinates": [28.861707365287565, -80.38279257747762]}}, {"type": "Feature", "properties": {"norad_id": 30218, "name": "FENGYUN 1C DEB", "group": "fengyun-1c-debris", "lat": 77.14333215841998, "lon": -62.93262509493491, "alt_km": 836.9987072750255, "timestamp": "2025-12-09T21:34:11.682666+00:00", "meta": {"OBJECT_NAME": "FENGYUN 1C DEB", "OBJECT_ID": "1999-025WB", "EPOCH": "2025-12-08T04:54:15.668928", "MEAN_MOTION": 14.28715519, "ECCENTRICITY": 0.0070547, "INCLINATION": 98.9848, "RA_OF_ASC_NODE": 71.4383, "ARG_OF_PERICENTER": 267.0889, "MEAN_ANOMALY": 122.254, "EPHEMERIS_TYPE": 0, "CLASSIFICATION_TYPE": "U", "NORAD_CAT_ID": 30218, "ELEMENT_SET_NO": 999, "REV_AT_EPOCH": 97044, "BSTAR": 0.0033660889, "MEAN_MOTION_DOT": 8.66e-05, "MEAN_MOTION_DDOT": 0}, "tle": {"line1": "1 30218U 99025WB  25342.20434802  .00008660  00000+0  33661-2 0  9998", "line2": "2 30218  98.9848  71.4383 0070547 267.0889 122.2540 14.28715519970444"}}, "geometry": {"type": "Point", "coordinates": [-62.93262509493491, 77.14333215841998]}}, {"type": "Feature", "properties": {"norad_id": 30221, "name": "FENGYUN 1C DEB", "group": "fengyun-1c-debris", "lat": -17.730911406152206, "lon": -111.48438508501818, "alt_km": 831.8098085074207, "timestamp": "2025-12-09T21:34:11.682676+00:00", "meta": {"OBJECT_NAME": "FENGYUN 1C DEB", "OBJECT_ID": "1999-025WE", "EPOCH": "2025-12-09T12:21:47.164608", "MEAN_MOTION": 14.45805336, "ECCENTRICITY": 0.01456103, "INCLINATION": 98.9566, "RA_OF_ASC_NODE": 71.0011, "ARG_OF_PERICENTER": 50.9666, "MEAN_ANOMALY": 310.4381, "EPHEMERIS_TYPE": 0, "CLASSIFICATION_TYPE": "U", "NORAD_CAT_ID": 30221, "ELEMENT_SET_NO": 999, "REV_AT_EPOCH": 99354, "BSTAR": 0.00037939139, "MEAN_MOTION_DOT": 1.48e-05, "MEAN_MOTION_DDOT": 0}, "tle": {"line1": "1 30221U 99025WE  25343.51512922  .00001480  00000+0  37939-3 0  9993", "line2": "2 30221  98.9566  71.0011 0145610  50.9666 310.4381 14.45805336993541"}}, "geometry": {"type": "Point", "coordinates": [-111.48438508501818, -17.730911406152206]}}, {"type": "Feature", "properties": {"norad_id": 30222, "name": "FENGYUN 1C DEB", "group": "fengyun-1c-debris", "lat": -58.30861839594919, "lon": -177.2418155438763, "alt_km": 913.6369341884174, "timestamp": "2025-12-09T21:34:11.682687+00:00", "meta": {"OBJECT_NAME": "FENGYUN 1C DEB", "OBJECT_ID": "1999-025WF", "EPOCH": "2025-12-09T14:20:27.253824", "MEAN_MOTION": 14.0407502, "ECCENTRICITY": 0.00382005, "INCLINATION": 98.8419, "RA_OF_ASC_NODE": 17.0676, "ARG_OF_PERICENTER": 45.8421, "MEAN_ANOMALY": 111.9783, "EPHEMERIS_TYPE": 0, "CLASSIFICATION_TYPE": "U", "NORAD_CAT_ID": 30222, "ELEMENT_SET_NO": 999, "REV_AT_EPOCH": 96794, "BSTAR": 1.2725133e-05, "MEAN_MOTION_DOT": -2.3e-07, "MEAN_MOTION_DDOT": 0}, "tle": {"line1": "1 30222U 99025WF  25343.59753766 -.00000023  00000+0  12725-4 0  9995", "line2": "2 30222  98.8419  17.0676 0038200  45.8421 111.9783 14.04075020967942"}}, "geometry": {"type": "Point", "coordinates": [-177.2418155438763, -58.30861839594919]}}]}